start=new Date('2022-04-22T00:00:00.000Z').valueOf();
sats=[{"DECAY_DATE":null,"CLASSIFICATION_TYPE":"U","NORAD_CAT_ID":"46167","APOAPSIS":"548.483","PERIAPSIS":"545.904","ARG_OF_PERICENTER":"47.7327","MEAN_ELEMENT_THEORY":"SGP4","OBJECT_NAME":"STARLINK-1626","COUNTRY_CODE":"US","TLE_LINE2":"2 46167  53.0535 203.1336 0001862  47.7327 312.3820 15.06406647 92315","TLE_LINE1":"1 46167U 20057BC  22111.49834094  .00000017  00000-0  20028-4 0  9990","GP_ID":"201748415","ELEMENT_SET_NO":"999","MEAN_MOTION":"15.06406647","FILE":"3410449","BSTAR":"0.00002002800000","OBJECT_TYPE":"PAYLOAD","REF_FRAME":"TEME","MEAN_ANOMALY":"312.3820","ECCENTRICITY":"0.00018620","INCLINATION":"53.0535","PERIOD":"95.592","SITE":"AFETR","SEMIMAJOR_AXIS":"6925.328","OBJECT_ID":"2020-057BC","CENTER_NAME":"EARTH","MEAN_MOTION_DDOT":"0.0000000000000","MEAN_MOTION_DOT":"0.00000017","LAUNCH_DATE":"2020-08-18","RA_OF_ASC_NODE":"203.1336","REV_AT_EPOCH":"9231","EPHEMERIS_TYPE":"0","TIME_SYSTEM":"UTC","RCS_SIZE":"LARGE","EPOCH":"2022-04-21T11:57:36.657216"},{"DECAY_DATE":null,"CLASSIFICATION_TYPE":"U","NORAD_CAT_ID":"46168","APOAPSIS":"548.430","ARG_OF_PERICENTER":"50.4099","PERIAPSIS":"545.962","MEAN_ELEMENT_THEORY":"SGP4","OBJECT_NAME":"STARLINK-1627","TLE_LINE1":"1 46168U 20057BD  22111.40247951  .00003315  00000-0  24128-3 0  9990","COUNTRY_CODE":"US","TLE_LINE2":"2 46168  53.0530 153.5508 0001782  50.4099 309.7047 15.06405619 92991","GP_ID":"201747193","ELEMENT_SET_NO":"999","MEAN_MOTION":"15.06405619","FILE":"3410449","BSTAR":"0.00024128000000","MEAN_ANOMALY":"309.7047","OBJECT_TYPE":"PAYLOAD","REF_FRAME":"TEME","ECCENTRICITY":"0.00017820","INCLINATION":"53.0530","PERIOD":"95.592","SITE":"AFETR","SEMIMAJOR_AXIS":"6925.331","OBJECT_ID":"2020-057BD","MEAN_MOTION_DDOT":"0.0000000000000","CENTER_NAME":"EARTH","MEAN_MOTION_DOT":"0.00003315","LAUNCH_DATE":"2020-08-18","RA_OF_ASC_NODE":"153.5508","REV_AT_EPOCH":"9299","EPHEMERIS_TYPE":"0","TIME_SYSTEM":"UTC","RCS_SIZE":"LARGE","EPOCH":"2022-04-21T09:39:34.229664"},{"PERIOD":"95.644","SITE":"AFETR","ECCENTRICITY":"0.00015340","INCLINATION":"53.0020","OBJECT_ID":"2020-057BE","SEMIMAJOR_AXIS":"6927.840","MEAN_MOTION_DDOT":"0.0000000000000","CENTER_NAME":"EARTH","RA_OF_ASC_NODE":"202.5781","MEAN_MOTION_DOT":"0.00001232","LAUNCH_DATE":"2020-08-18","RCS_SIZE":"LARGE","EPOCH":"2022-04-21T14:49:50.428992","REV_AT_EPOCH":"9229","EPHEMERIS_TYPE":"0","TIME_SYSTEM":"UTC","APOAPSIS":"550.768","ARG_OF_PERICENTER":"66.7052","PERIAPSIS":"548.642","DECAY_DATE":null,"CLASSIFICATION_TYPE":"U","NORAD_CAT_ID":"46169","OBJECT_NAME":"STARLINK-1628","TLE_LINE1":"1 46169U 20057BE  22111.61794478  .00001232  00000-0  10371-3 0  9996","TLE_LINE2":"2 46169  53.0020 202.5781 0001534  66.7052 293.4098 15.05587427 92293","COUNTRY_CODE":"US","MEAN_ELEMENT_THEORY":"SGP4","GP_ID":"201773810","BSTAR":"0.00010371000000","MEAN_ANOMALY":"293.4098","OBJECT_TYPE":"PAYLOAD","REF_FRAME":"TEME","ELEMENT_SET_NO":"999","FILE":"3410450","MEAN_MOTION":"15.05587427"},{"BSTAR":"-0.00000897520000","OBJECT_TYPE":"PAYLOAD","REF_FRAME":"TEME","MEAN_ANOMALY":"304.7676","ELEMENT_SET_NO":"999","FILE":"3410450","MEAN_MOTION":"15.06407458","GP_ID":"201773555","OBJECT_NAME":"STARLINK-1633","COUNTRY_CODE":"US","TLE_LINE2":"2 46171  53.0533 182.3355 0001817  55.3484 304.7676 15.06407458 93277","TLE_LINE1":"1 46171U 20057BG  22111.67341665 -.00000415  00000-0 -89752-5 0  9996","MEAN_ELEMENT_THEORY":"SGP4","APOAPSIS":"548.449","PERIAPSIS":"545.932","ARG_OF_PERICENTER":"55.3484","NORAD_CAT_ID":"46171","DECAY_DATE":null,"CLASSIFICATION_TYPE":"U","RCS_SIZE":"LARGE","EPOCH":"2022-04-21T16:09:43.198560","REV_AT_EPOCH":"9327","EPHEMERIS_TYPE":"0","TIME_SYSTEM":"UTC","RA_OF_ASC_NODE":"182.3355","MEAN_MOTION_DOT":"-0.00000415","LAUNCH_DATE":"2020-08-18","SEMIMAJOR_AXIS":"6925.326","OBJECT_ID":"2020-057BG","CENTER_NAME":"EARTH","MEAN_MOTION_DDOT":"0.0000000000000","PERIOD":"95.592","SITE":"AFETR","ECCENTRICITY":"0.00018170","INCLINATION":"53.0533"},{"GP_ID":"201772809","OBJECT_TYPE":"PAYLOAD","MEAN_ANOMALY":"307.8883","REF_FRAME":"TEME","BSTAR":"-0.00002185100000","MEAN_MOTION":"15.06398735","FILE":"3410450","ELEMENT_SET_NO":"999","PERIAPSIS":"545.955","ARG_OF_PERICENTER":"52.2270","APOAPSIS":"548.480","NORAD_CAT_ID":"46172","DECAY_DATE":null,"CLASSIFICATION_TYPE":"U","TLE_LINE2":"2 46172  53.0520 182.5794 0001823  52.2270 307.8883 15.06398735 93865","COUNTRY_CODE":"US","TLE_LINE1":"1 46172U 20057BH  22111.62182525 -.00000607  00000-0 -21851-4 0  9998","OBJECT_NAME":"STARLINK-1635","MEAN_ELEMENT_THEORY":"SGP4","RA_OF_ASC_NODE":"182.5794","LAUNCH_DATE":"2020-08-18","MEAN_MOTION_DOT":"-0.00000607","EPOCH":"2022-04-21T14:55:25.701600","RCS_SIZE":"LARGE","TIME_SYSTEM":"UTC","EPHEMERIS_TYPE":"0","REV_AT_EPOCH":"9386","SITE":"AFETR","PERIOD":"95.592","INCLINATION":"53.0520","ECCENTRICITY":"0.00018230","CENTER_NAME":"EARTH","MEAN_MOTION_DDOT":"0.0000000000000","OBJECT_ID":"2020-057BH","SEMIMAJOR_AXIS":"6925.352"},{"EPHEMERIS_TYPE":"0","TIME_SYSTEM":"UTC","REV_AT_EPOCH":"9234","EPOCH":"2022-04-21T17:37:17.677632","RCS_SIZE":"LARGE","LAUNCH_DATE":"2020-08-18","MEAN_MOTION_DOT":"0.00002511","RA_OF_ASC_NODE":"202.0763","CENTER_NAME":"EARTH","MEAN_MOTION_DDOT":"0.0000000000000","SEMIMAJOR_AXIS":"6925.354","OBJECT_ID":"2020-057BJ","INCLINATION":"53.0556","ECCENTRICITY":"0.00018990","SITE":"AFETR","PERIOD":"95.592","MEAN_MOTION":"15.06398165","FILE":"3410450","ELEMENT_SET_NO":"999","REF_FRAME":"TEME","OBJECT_TYPE":"PAYLOAD","MEAN_ANOMALY":"311.0768","BSTAR":"0.00018742000000","GP_ID":"201773059","MEAN_ELEMENT_THEORY":"SGP4","TLE_LINE2":"2 46173  53.0556 202.0763 0001899  49.0385 311.0768 15.06398165 92341","COUNTRY_CODE":"US","TLE_LINE1":"1 46173U 20057BJ  22111.73423238  .00002511  00000-0  18742-3 0  9998","OBJECT_NAME":"STARLINK-1640","CLASSIFICATION_TYPE":"U","DECAY_DATE":null,"NORAD_CAT_ID":"46173","PERIAPSIS":"545.904","ARG_OF_PERICENTER":"49.0385","APOAPSIS":"548.534"},{"GP_ID":"201747941","ELEMENT_SET_NO":"999","FILE":"3410449","MEAN_MOTION":"15.06411835","BSTAR":"0.00022842000000","OBJECT_TYPE":"PAYLOAD","REF_FRAME":"TEME","MEAN_ANOMALY":"312.5188","CLASSIFICATION_TYPE":"U","DECAY_DATE":null,"NORAD_CAT_ID":"46174","APOAPSIS":"548.422","PERIAPSIS":"545.932","ARG_OF_PERICENTER":"47.5953","MEAN_ELEMENT_THEORY":"SGP4","OBJECT_NAME":"STARLINK-1641","TLE_LINE2":"2 46174  53.0545 202.9347 0001798  47.5953 312.5188 15.06411835 92318","COUNTRY_CODE":"US","TLE_LINE1":"1 46174U 20057BK  22111.54256971  .00003123  00000-0  22842-3 0  9992","MEAN_MOTION_DOT":"0.00003123","LAUNCH_DATE":"2020-08-18","RA_OF_ASC_NODE":"202.9347","REV_AT_EPOCH":"9231","TIME_SYSTEM":"UTC","EPHEMERIS_TYPE":"0","RCS_SIZE":"LARGE","EPOCH":"2022-04-21T13:01:18.022944","ECCENTRICITY":"0.00017980","INCLINATION":"53.0545","PERIOD":"95.591","SITE":"AFETR","SEMIMAJOR_AXIS":"6925.312","OBJECT_ID":"2020-057BK","CENTER_NAME":"EARTH","MEAN_MOTION_DDOT":"0.0000000000000"},{"COUNTRY_CODE":"US","TLE_LINE2":"2 46325  53.0554 216.9899 0001802  51.3996 308.7154 15.06390642 91837","TLE_LINE1":"1 46325U 20062A   22111.75313580  .00001013  00000-0  86922-4 0  9995","OBJECT_NAME":"STARLINK-1734","MEAN_ELEMENT_THEORY":"SGP4","PERIAPSIS":"545.994","ARG_OF_PERICENTER":"51.3996","APOAPSIS":"548.490","DECAY_DATE":null,"NORAD_CAT_ID":"46325","CLASSIFICATION_TYPE":"U","OBJECT_TYPE":"PAYLOAD","MEAN_ANOMALY":"308.7154","REF_FRAME":"TEME","BSTAR":"0.00008692200000","FILE":"3410450","MEAN_MOTION":"15.06390642","ELEMENT_SET_NO":"999","GP_ID":"201772320","CENTER_NAME":"EARTH","MEAN_MOTION_DDOT":"0.0000000000000","OBJECT_ID":"2020-062A","SEMIMAJOR_AXIS":"6925.377","SITE":"AFETR","PERIOD":"95.593","INCLINATION":"53.0554","ECCENTRICITY":"0.00018020","EPOCH":"2022-04-21T18:04:30.933120","RCS_SIZE":"LARGE","EPHEMERIS_TYPE":"0","TIME_SYSTEM":"UTC","REV_AT_EPOCH":"9183","RA_OF_ASC_NODE":"216.9899","LAUNCH_DATE":"2020-09-03","MEAN_MOTION_DOT":"0.00001013"},{"BSTAR":"-0.00001096300000","REF_FRAME":"TEME","OBJECT_TYPE":"PAYLOAD","MEAN_ANOMALY":"299.3205","ELEMENT_SET_NO":"999","MEAN_MOTION":"15.06398988","FILE":"3410450","GP_ID":"201772570","OBJECT_NAME":"STARLINK-1654","TLE_LINE1":"1 46326U 20062B   22111.66141992 -.00000445  00000-0 -10963-4 0  9994","TLE_LINE2":"2 46326  53.0557 262.3927 0001586  60.7943 299.3205 15.06398988 90587","COUNTRY_CODE":"US","MEAN_ELEMENT_THEORY":"SGP4","APOAPSIS":"548.315","ARG_OF_PERICENTER":"60.7943","PERIAPSIS":"546.118","CLASSIFICATION_TYPE":"U","DECAY_DATE":null,"NORAD_CAT_ID":"46326","RCS_SIZE":"LARGE","EPOCH":"2022-04-21T15:52:26.681088","REV_AT_EPOCH":"9058","TIME_SYSTEM":"UTC","EPHEMERIS_TYPE":"0","RA_OF_ASC_NODE":"262.3927","MEAN_MOTION_DOT":"-0.00000445","LAUNCH_DATE":"2020-09-03","OBJECT_ID":"2020-062B","SEMIMAJOR_AXIS":"6925.352","MEAN_MOTION_DDOT":"0.0000000000000","CENTER_NAME":"EARTH","PERIOD":"95.592","SITE":"AFETR","ECCENTRICITY":"0.00015860","INCLINATION":"53.0557"},{"CLASSIFICATION_TYPE":"U","DECAY_DATE":null,"NORAD_CAT_ID":"46327","APOAPSIS":"548.019","PERIAPSIS":"546.329","ARG_OF_PERICENTER":"68.0781","MEAN_ELEMENT_THEORY":"SGP4","OBJECT_NAME":"STARLINK-1673","COUNTRY_CODE":"US","TLE_LINE2":"2 46327  53.0531 262.2026 0001220  68.0781 292.0337 15.06412920 90764","TLE_LINE1":"1 46327U 20062C   22111.70659056  .00013567  00000-0  92762-3 0  9998","GP_ID":"201773822","ELEMENT_SET_NO":"999","FILE":"3410450","MEAN_MOTION":"15.06412920","BSTAR":"0.00092762000000","REF_FRAME":"TEME","OBJECT_TYPE":"PAYLOAD","MEAN_ANOMALY":"292.0337","ECCENTRICITY":"0.00012200","INCLINATION":"53.0531","PERIOD":"95.591","SITE":"AFETR","OBJECT_ID":"2020-062C","SEMIMAJOR_AXIS":"6925.309","CENTER_NAME":"EARTH","MEAN_MOTION_DDOT":"0.0000000000000","MEAN_MOTION_DOT":"0.00013567","LAUNCH_DATE":"2020-09-03","RA_OF_ASC_NODE":"262.2026","REV_AT_EPOCH":"9076","EPHEMERIS_TYPE":"0","TIME_SYSTEM":"UTC","RCS_SIZE":"LARGE","EPOCH":"2022-04-21T16:57:29.424384"}];
